{"type": "FeatureCollection", "features": [ {"type": "Feature", "properties": {"norad_id": 47012, "name": "FENGYUN 1C DEB", "group": "fengyun-1c-debris", "lat": 67.30552726428701, "lon": -145.78941875512464, "alt_km": 867.0257565742868, "timestamp": "2025-12-24T05:51:19.899381+00:00", "meta": {"OBJECT_NAME": "FENGYUN 1C DEB", "OBJECT_ID": "1999-025FAN", "EPOCH": "2025-12-05T22:22:36.481152", "MEAN_MOTION": 13.77908149, "ECCENTRICITY": 0.01638485, "INCLINATION": 98.755, "RA_OF_ASC_NODE": 218.9381, "ARG_OF_PERICENTER": 81.7177, "MEAN_ANOMALY": 280.2518, "EPHEMERIS_TYPE": 0, "CLASSIFICATION_TYPE": "U", "NORAD_CAT_ID": 47012, "ELEMENT_SET_NO": 999, "REV_AT_EPOCH": 54479, "BSTAR": 0.00065808903, "MEAN_MOTION_DOT": 6.91e-06, "MEAN_MOTION_DDOT": 0}, "tle": {"line1": "1 47012U 99025FAN 25339.93236668  .00000691  00000+0  65809-3 0  9990", "line2": "2 47012  98.7550 218.9381 0163848  81.7177 280.2518 13.77908149544797"}}, "geometry": {"type": "Point", "coordinates": [-145.78941875512464, 67.30552726428701]}}, {"type": "Feature", "properties": {"norad_id": 47015, "name": "FENGYUN 1C DEB", "group": "fengyun-1c-debris", "lat": -67.71331267132896, "lon": -145.89068204071634, "alt_km": 734.6092311443181, "timestamp": "2025-12-24T05:51:19.899391+00:00", "meta": {"OBJECT_NAME": "FENGYUN 1C DEB", "OBJECT_ID": "1999-025FAR", "EPOCH": "2025-12-20T10:20:25.475424", "MEAN_MOTION": 14.87477483, "ECCENTRICITY": 0.01753836, "INCLINATION": 98.7094, "RA_OF_ASC_NODE": 51.8891, "ARG_OF_PERICENTER": 88.0341, "MEAN_ANOMALY": 274.0948, "EPHEMERIS_TYPE": 0, "CLASSIFICATION_TYPE": "U", "NORAD_CAT_ID": 47015, "ELEMENT_SET_NO": 999, "REV_AT_EPOCH": 64496, "BSTAR": 0.00039688494, "MEAN_MOTION_DOT": 4.702e-05, "MEAN_MOTION_DDOT": 0}, "tle": {"line1": "1 47015U 99025FAR 25354.43085041  .00004702  00000+0  39688-3 0  9995", "line2": "2 47015  98.7094  51.8891 0175383  88.0341 274.0948 14.87477483644965"}}, "geometry": {"type": "Point", "coordinates": [-145.89068204071634, -67.71331267132896]}}, {"type": "Feature", "properties": {"norad_id": 47025, "name": "FENGYUN 1C DEB", "group": "fengyun-1c-debris", "lat": -25.07399609660414, "lon": -150.20078000897843, "alt_km": 714.5337291975875, "timestamp": "2025-12-24T05:51:19.899401+00:00", "meta": {"OBJECT_NAME": "FENGYUN 1C DEB", "OBJECT_ID": "1999-025FBB", "EPOCH": "2025-12-23T20:05:47.173056", "MEAN_MOTION": 14.46439177, "ECCENTRICITY": 0.00404785, "INCLINATION": 99.0325, "RA_OF_ASC_NODE": 205.0979, "ARG_OF_PERICENTER": 325.1596, "MEAN_ANOMALY": 53.272, "EPHEMERIS_TYPE": 0, "CLASSIFICATION_TYPE": "U", "NORAD_CAT_ID": 47025, "ELEMENT_SET_NO": 999, "REV_AT_EPOCH": 62902, "BSTAR": 0.0020639446, "MEAN_MOTION_DOT": 7.452e-05, "MEAN_MOTION_DDOT": 0}, "tle": {"line1": "1 47025U 99025FBB 25357.83735154  .00007452  00000+0  20639-2 0  9990", "line2": "2 47025  99.0325 205.0979 0040478 325.1596  53.2720 14.46439177629028"}}, "geometry": {"type": "Point", "coordinates": [-150.20078000897843, -25.07399609660414]}}, {"type": "Feature", "properties": {"norad_id": 47036, "name": "FENGYUN 1C DEB", "group": "fengyun-1c-debris", "lat": -71.71584465361343, "lon": 69.08032150620939, "alt_km": 886.3283611679844, "timestamp": "2025-12-24T05:51:19.899411+00:00", "meta": {"OBJECT_NAME": "FENGYUN 1C DEB", "OBJECT_ID": "1999-025FBN", "EPOCH": "2025-12-21T21:22:20.214336", "MEAN_MOTION": 14.15181398, "ECCENTRICITY": 0.00688084, "INCLINATION": 98.7206, "RA_OF_ASC_NODE": 39.0997, "ARG_OF_PERICENTER": 71.9152, "MEAN_ANOMALY": 111.3829, "EPHEMERIS_TYPE": 0, "CLASSIFICATION_TYPE": "U", "NORAD_CAT_ID": 47036, "ELEMENT_SET_NO": 999, "REV_AT_EPOCH": 60056, "BSTAR": 0.0001328912, "MEAN_MOTION_DOT": 2.21e-06, "MEAN_MOTION_DDOT": 0}, "tle": {"line1": "1 47036U 99025FBN 25355.89051174  .00000221  00000+0  13289-3 0  9990", "line2": "2 47036  98.7206  39.0997 0068808  71.9152 111.3829 14.15181398600569"}}, "geometry": {"type": "Point", "coordinates": [69.08032150620939, -71.71584465361343]}}, {"type": "Feature", "properties": {"norad_id": 47040, "name": "FENGYUN 1C DEB", "group": "fengyun-1c-debris", "lat": 71.718160002233, "lon": -126.80313762604666, "alt_km": 891.5490831722209, "timestamp": "2025-12-24T05:51:19.899421+00:00", "meta": {"OBJECT_NAME": "FENGYUN 1C DEB", "OBJECT_ID": "1999-025FBS", "EPOCH": "2025-12-15T23:27:12.170880", "MEAN_MOTION": 14.06493473, "ECCENTRICITY": 0.00627218, "INCLINATION": 100.2945, "RA_OF_ASC_NODE": 257.1831, "ARG_OF_PERICENTER": 223.9582, "MEAN_ANOMALY": 135.6583, "EPHEMERIS_TYPE": 0, "CLASSIFICATION_TYPE": "U", "NORAD_CAT_ID": 47040, "ELEMENT_SET_NO": 999, "REV_AT_EPOCH": 89154, "BSTAR": 0.00050503613, "MEAN_MOTION_DOT": 7.95e-06, "MEAN_MOTION_DDOT": 0}, "tle": {"line1": "1 47040U 99025FBS 25349.97722420  .00000795  00000+0  50504-3 0  9993", "line2": "2 47040 100.2945 257.1831 0062721 223.9582 135.6583 14.06493473891543"}}, "geometry": {"type": "Point", "coordinates": [-126.80313762604666, 71.718160002233]}}, {"type": "Feature", "properties": {"norad_id": 47041, "name": "FENGYUN 1C DEB", "group": "fengyun-1c-debris", "lat": -28.464050201170068, "lon": -158.91724657097848, "alt_km": 543.8013750099426, "timestamp": "2025-12-24T05:51:19.899431+00:00", "meta": {"OBJECT_NAME": "FENGYUN 1C DEB", "OBJECT_ID": "1999-025FBT", "EPOCH": "2025-12-23T20:08:36.395232", "MEAN_MOTION": 15.0773069, "ECCENTRICITY": 0.00154517, "INCLINATION": 98.2551, "RA_OF_ASC_NODE": 25.163, "ARG_OF_PERICENTER": 148.8081, "MEAN_ANOMALY": 24.5751, "EPHEMERIS_TYPE": 0, "CLASSIFICATION_TYPE": "U", "NORAD_CAT_ID": 47041, "ELEMENT_SET_NO": 999, "REV_AT_EPOCH": 71356, "BSTAR": 0.0017588298, "MEAN_MOTION_DOT": 0.00026947, "MEAN_MOTION_DDOT": 0}, "tle": {"line1": "1 47041U 99025FBT 25357.83931013  .00026947  00000+0  17588-2 0  9999", "line2": "2 47041  98.2551  25.1630 0015451 148.8081  24.5751 15.07730690713565"}}, "geometry": {"type": "Point", "coordinates": [-158.91724657097848, -28.464050201170068]}}, {"type": "Feature", "properties": {"norad_id": 47042, "name": "FENGYUN 1C DEB", "group": "fengyun-1c-debris", "lat": -17.554112294094868, "lon": -101.12712225283033, "alt_km": 783.2310966204113, "timestamp": "2025-12-24T05:51:19.899442+00:00", "meta": {"OBJECT_NAME": "FENGYUN 1C DEB", "OBJECT_ID": "1999-025FBU", "EPOCH": "2025-12-19T12:00:36.072000", "MEAN_MOTION": 14.22844145, "ECCENTRICITY": 0.0055101, "INCLINATION": 99.0013, "RA_OF_ASC_NODE": 251.153, "ARG_OF_PERICENTER": 15.4542, "MEAN_ANOMALY": 162.9996, "EPHEMERIS_TYPE": 0, "CLASSIFICATION_TYPE": "U", "NORAD_CAT_ID": 47042, "ELEMENT_SET_NO": 999, "REV_AT_EPOCH": 62617, "BSTAR": 0.00020738, "MEAN_MOTION_DOT": 4.26e-06, "MEAN_MOTION_DDOT": 0}, "tle": {"line1": "1 47042U 99025FBU 25353.50041750  .00000426  00000+0  20738-3 0  9996", "line2": "2 47042  99.0013 251.1530 0055101  15.4542 162.9996 14.22844145626170"}}, "geometry": {"type": "Point", "coordinates": [-101.12712225283033, -17.554112294094868]}}, {"type": "Feature", "properties": {"norad_id": 47100, "name": "FENGYUN 1C DEB", "group": "fengyun-1c-debris", "lat": -32.996014930472626, "lon": -7.30972664310763, "alt_km": 743.2382796055881, "timestamp": "2025-12-24T05:51:19.899452+00:00", "meta": {"OBJECT_NAME": "FENGYUN 1C DEB", "OBJECT_ID": "1999-025FBY", "EPOCH": "2025-12-23T10:40:14.323872", "MEAN_MOTION": 14.51573282, "ECCENTRICITY": 0.0089097, "INCLINATION": 99.0205, "RA_OF_ASC_NODE": 177.7532, "ARG_OF_PERICENTER": 321.5252, "MEAN_ANOMALY": 37.9611, "EPHEMERIS_TYPE": 0, "CLASSIFICATION_TYPE": "U", "NORAD_CAT_ID": 47100, "ELEMENT_SET_NO": 999, "REV_AT_EPOCH": 26923, "BSTAR": 0.0019540667, "MEAN_MOTION_DOT": 8.19e-05, "MEAN_MOTION_DDOT": 0}, "tle": {"line1": "1 47100U 99025FBY 25357.44461023  .00008190  00000+0  19541-2 0  9992", "line2": "2 47100  99.0205 177.7532 0089097 321.5252  37.9611 14.51573282269231"}}, "geometry": {"type": "Point", "coordinates": [-7.30972664310763, -32.996014930472626]}}, {"type": "Feature", "properties": {"norad_id": 47104, "name": "FENGYUN 1C DEB", "group": "fengyun-1c-debris", "lat": -76.8028211973007, "lon": 165.8802217236905, "alt_km": 813.3113030033437, "timestamp": "2025-12-24T05:51:19.899462+00:00", "meta": {"OBJECT_NAME": "FENGYUN 1C DEB", "OBJECT_ID": "1999-025FCC", "EPOCH": "2025-12-20T19:25:32.617920", "MEAN_MOTION": 14.19434358, "ECCENTRICITY": 0.00403981, "INCLINATION": 98.9084, "RA_OF_ASC_NODE": 24.4065, "ARG_OF_PERICENTER": 313.3102, "MEAN_ANOMALY": 46.4707, "EPHEMERIS_TYPE": 0, "CLASSIFICATION_TYPE": "U", "NORAD_CAT_ID": 47104, "ELEMENT_SET_NO": 999, "REV_AT_EPOCH": 62487, "BSTAR": 0.00016269056, "MEAN_MOTION_DOT": 2.99e-06, "MEAN_MOTION_DDOT": 0}, "tle": {"line1": "1 47104U 99025FCC 25354.80940530  .00000299  00000+0  16269-3 0  9995", "line2": "2 47104  98.9084  24.4065 0040398 313.3102  46.4707 14.19434358624871"}}, "geometry": {"type": "Point", "coordinates": [165.8802217236905, -76.8028211973007]}}]}